Business Name,Address,City,State,ZIP,NAICS Code,Brand Name
CVS,33499 Yucaipa Blvd,Yucaipa,CA,92399,446110,CVS
CVS,12280 Perris Blvd,Moreno Valley,CA,92557,446110,CVS
CVS,8148 E Santa Ana Canyon Rd,Anaheim,CA,92808,446110,CVS
CVS,120 E Bonita Ave,San Dimas,CA,91773,446110,CVS
CVS,4200 E 4th St,Ontario,CA,91764,446110,CVS
CVS,435 E Arrow Hwy,Glendora,CA,91740,446110,CVS
CVS,7170 Day Creek Blvd,Rancho Cucamonga,CA,91739,446110,CVS
CVS,27320 W Lugonia Ave,Redlands,CA,92374,446110,CVS
CVS,775 E Foothill Blvd,Pomona,CA,91767,446110,CVS
CVS,20475 Yorba Linda Blvd,Yorba Linda,CA,92886,446110,CVS
CVS,499 W Orange Show Rd,San Bernardino,CA,92408,446110,CVS
CVS,26180 Iris Ave,Moreno Valley,CA,92555,446110,CVS
CVS,100 Foothill Boulevard,Upland,CA,91786,446110,CVS
CVS,6215 Riverside Ave,Riverside,CA,92506,446110,CVS
CVS,1322 W 6th St,Corona,CA,92882,446110,CVS
CVS,14220 Schleisman Rd,Eastvale,CA,92880,446110,CVS
CVS,1479 Foothill Blvd,La Verne,CA,91750,446110,CVS
CVS,9052 Central Ave,Montclair,CA,91763,446110,CVS
CVS,800 Tri City Ctr,Redlands,CA,92374,446110,CVS
CVS,491 E Alessandro Blvd,Riverside,CA,92508,446110,CVS
CVS,7911 Haven Ave,Rancho Cucamonga,CA,91730,446110,CVS
CVS,300 S Diamond Bar Blvd,Diamond Bar,CA,91765,446110,CVS
CVS,1485 S Garey Ave,Pomona,CA,91766,446110,CVS
CVS,3290 Chino Hills Pkwy,Chino Hills,CA,91709,446110,CVS
CVS,16049 Baseline Ave,Fontana,CA,92336,446110,CVS
CVS,150 E Yorba Linda Blvd,Placentia,CA,92870,446110,CVS
CVS,701 Rio Rancho Rd,Pomona,CA,91766,446110,CVS
CVS,5200 University Pkwy,San Bernardino,CA,92407,446110,CVS
CVS,15286 Summit Ave,Fontana,CA,92336,446110,CVS
CVS,13181 Peyton Dr,Chino Hills,CA,91709,446110,CVS
CVS,101 Redlands Mall,Redlands,CA,92373,446110,CVS
CVS,747 Grand Ave,Diamond Bar,CA,91765,446110,CVS
CVS,1183 Magnolia Ave,Corona,CA,92879,446110,CVS
CVS,311 S Mountain Ave,Upland,CA,91786,446110,CVS
CVS,12471 Limonite Ave,Eastvale,CA,91752,446110,CVS
CVS,2121 W Baseline Rd,Upland,CA,91784,446110,CVS
CVS,1564 W Base Line St,San Bernardino,CA,92411,446110,CVS
CVS,6405 Day St,Riverside,CA,92507,446110,CVS
CVS,3361 Market St,Riverside,CA,92501,446110,CVS
CVS,2456 S Grove Ave,Ontario,CA,91761,446110,CVS
CVS,1795 E Lugonia Ave,Redlands,CA,92374,446110,CVS
CVS,731 S Weir Canyon Rd,Anaheim,CA,92808,446110,CVS
CVS,1290 Hamner Ave,Norco,CA,92860,446110,CVS
CVS,1101 Hidden Valley Pkwy,Norco,CA,92860,446110,CVS
CVS,2755 Canyon Springs Pkwy,Riverside,CA,92507,446110,CVS
CVS,7117 Brockton Ave,Riverside,CA,92506,446110,CVS
CVS,3333 Arlington Ave,Riverside,CA,92506,446110,CVS
CVS,8280 Magnolia Ave,Riverside,CA,92504,446110,CVS
CVS,690 E Foothill Blvd,Upland,CA,91786,446110,CVS
CVS,6840 Lincoln Ave,Riverside,CA,92506,446110,CVS
CVS,10576 Foothill Blvd,Rancho Cucamonga,CA,91730,446110,CVS
CVS,888 W Arrow Hwy,San Dimas,CA,91773,446110,CVS
CVS,27100 Eucalyptus Ave,Moreno Valley,CA,92555,446110,CVS
CVS,150 W Willow St,Pomona,CA,91768,446110,CVS
CVS,5735 E La Palma Ave,Anaheim,CA,92807,446110,CVS
CVS,2238 S Euclid Ave Ste A,Ontario,CA,91762,446110,CVS
CVS,1875 N Kraemer Blvd,Placentia,CA,92870,446110,CVS
CVS,211 W Base Line Rd,Rialto,CA,92376,446110,CVS
CVS,1010 N Pepper Ave,Colton,CA,92324,446110,CVS
CVS,12101 Central Avenue Central And Philadelphia,Chino,CA,91710,446110,CVS
CVS,15272 Summit Ave,Fontana,CA,92336,446110,CVS
CVS,4535 Holt Blvd,Montclair,CA,91763,446110,CVS
CVS,18080 Imperial Hwy,Yorba Linda,CA,92886,446110,CVS
CVS,11428 Kenyon Way,Rancho Cucamonga,CA,91701,446110,CVS
CVS,2462 Foothill Blvd,La Verne,CA,91750,446110,CVS
CVS,3520 Tyler St,Riverside,CA,92503,446110,CVS
CVS,8956 Foothill Blvd,Rancho Cucamonga,CA,91730,446110,CVS
CVS,7241 Boulder Ave,Highland,CA,92346,446110,CVS
CVS,1240 E Yorba Linda Blvd,Placentia,CA,92870,446110,CVS
CVS,21590 Valley Blvd,City of Industry,CA,91789,446110,CVS
CVS,3440 La Sierra Ave,Riverside,CA,92503,446110,CVS
CVS,1540 E Highland Ave,San Bernardino,CA,92404,446110,CVS
CVS,12071 Mount Vernon Ave,Grand Terrace,CA,92313,446110,CVS
CVS,27310 Baseline St,Highland,CA,92346,446110,CVS
CVS,2400 River Rd,Corona,CA,92860,446110,CVS
CVS,3944 Grand Ave,Chino,CA,91710,446110,CVS
CVS,9840 Sierra Ave,Fontana,CA,92335,446110,CVS
CVS,5555 Philadelphia St,Chino,CA,91710,446110,CVS
CVS,16964 Slover Ave,Fontana,CA,92337,446110,CVS
CVS,1931 N Campus Ave,Upland,CA,91784,446110,CVS
CVS specialty pharmacy,1127 Bryn Mawr Ave Ste A,Redlands,CA,92374,446110,
