Business Name,Address,City,State,ZIP
CVS,11051 Victory Blvd,North Hollywood,CA,91606
CVS,864 Swarthmore Ave,Pacific Palisades,CA,90272
CVS,15614 Whittwood Ln,Whittier,CA,90603
CVS,1025 E Adams Blvd,Los Angeles,CA,90011
CVS,4235 Pacific Coast Hwy,Torrance,CA,90505
CVS,233 E Willow St,Long Beach,CA,90806
CVS,33499 Yucaipa Blvd,Yucaipa,CA,92399
CVS,12280 Perris Blvd,Moreno Valley,CA,92557
CVS,4211 Eagle Rock Blvd,Los Angeles,CA,90065
CVS,8148 E Santa Ana Canyon Rd,Anaheim,CA,92808
CVS,5030 Long Beach Boulevard Corner of del Amo,Long Beach,CA,90805
CVS,3208 E Florence Ave,Huntington Park,CA,90255
CVS,10861 Weyburn Ave,Los Angeles,CA,90024
CVS,9038 Balboa Blvd,Northridge,CA,91325
CVS,2191 N Tustin St,Orange,CA,92865
CVS,12015 Wilshire Blvd,Los Angeles,CA,90025
CVS,1750 N Grand Ave,Santa Ana,CA,92705
CVS,7915 Florence Ave,Downey,CA,90240
CVS,3644 E Olympic Blvd,Los Angeles,CA,90023
CVS,120 E Bonita Ave,San Dimas,CA,91773
CVS,8985 Venice Blvd,Los Angeles,CA,90034
CVS,30340 Haun Rd,Menifee,CA,92584
CVS,3800 Martin Luther King Jr Blvd,Lynwood,CA,90262
CVS,8425 Laurel Canyon Blvd,Sun Valley,CA,91352
CVS,4400 Los Coyotes Diagonal Traffic Circle,Long Beach,CA,90815
CVS,13831 Brookhurst St,Garden Grove,CA,92843
CVS,27251 La Paz Rd,Laguna Niguel,CA,92677
CVS,9089 Woodman Ave,Arleta,CA,91331
CVS,24372 Rockfield Blvd,Lake Forest,CA,92630
CVS,2500 W Victory Blvd,Burbank,CA,91505
CVS,5501 Ball Rd,Cypress,CA,90630
CVS,800 W Whittier Blvd,Montebello,CA,90640
CVS,206 N Azusa Ave,Covina,CA,91722
CVS,16961 Beach Blvd,Huntington Beach,CA,92647
CVS,9920 Garvey Ave,El Monte,CA,91733
CVS,651 W Sepulveda Blvd,Carson,CA,90745
CVS,15210 Rosecrans Ave,La Mirada,CA,90638
CVS,228 N Harbor Blvd,Santa Ana,CA,92703
CVS,1485 E Valley Blvd,Alhambra,CA,91801
CVS,6750 Cherry Ave,Long Beach,CA,90805
CVS,4200 E 4th St,Ontario,CA,91764
CVS,25272 Marguerite Pkwy,Mission Viejo,CA,92692
CVS,3883 E Foothill Blvd,Pasadena,CA,91107
CVS,2240 Fair Park Ave,Los Angeles,CA,90041
CVS,303 S La Brea Ave,Los Angeles,CA,90036
CVS,2091 E Lakeshore Dr,Lake Elsinore,CA,92530
CVS,5623 Kanan Rd,Agoura Hills,CA,91301
CVS,6510 South St,Lakewood,CA,90713
CVS,7100 Santa Monica Blvd Ste 201,West Hollywood,CA,90046
CVS,3131 S Hoover St Unit 9 A,Los Angeles,CA,90089
CVS,8900 Sepulveda Westway,Los Angeles,CA,90045
CVS,6588 Foothill Blvd,Tujunga,CA,91042
CVS,1033 N Hollywood Way,Burbank,CA,91505
CVS,15743 Imperial Hwy,La Mirada,CA,90638
CVS,435 E Arrow Hwy,Glendora,CA,91740
CVS,7170 Day Creek Blvd,Rancho Cucamonga,CA,91739
CVS,480 S Main St,Orange,CA,92868
CVS,1803 S Harbor Blvd,Anaheim,CA,92802
CVS,27320 W Lugonia Ave,Redlands,CA,92374
CVS,20 E Orange Grove Blvd,Pasadena,CA,91103
CVS,1151 S Harbor Blvd,La Habra,CA,90631
CVS,1000 W Imperial Hwy,La Habra,CA,90631
CVS,25622 Crown Valley Pkwy,Ladera Ranch,CA,92694
CVS,777 E Colorado Blvd,Pasadena,CA,91101
CVS,1954 Durfee Ave,South El Monte,CA,91733
CVS,861 Vine St,Los Angeles,CA,90038
CVS,1919 S Hoover St,Los Angeles,CA,90007
CVS,900 Spectrum Center Dr,Irvine,CA,92618
CVS,7021 Hollywood Blvd,Los Angeles,CA,90028
CVS,3120 W Imperial Hwy,Inglewood,CA,90303
CVS,2525 Via Campo,Montebello,CA,90640
CVS,775 E Foothill Blvd,Pomona,CA,91767
CVS,4320 Redondo Beach Blvd,Torrance,CA,90504
CVS,27551 Puerta Real,Mission Viejo,CA,92691
CVS,20475 Yorba Linda Blvd,Yorba Linda,CA,92886
CVS,2300 Park Ave,Tustin,CA,92782
CVS,20200 Bloomfield Ave,Cerritos,CA,90703
CVS,4030 S Western Ave,Los Angeles,CA,90062
CVS,22968 Victory Blvd,Woodland Hills,CA,91367
CVS,21761 Lake Forest Dr,Lake Forest,CA,92630
CVS,499 W Orange Show Rd,San Bernardino,CA,92408
CVS,8225 Garvey Ave,Rosemead,CA,91770
CVS,15421 Brookhurst St,Westminster,CA,92683
CVS,809 N Azusa Ave,Azusa,CA,91702
CVS,5600 Whittier Blvd,Commerce,CA,90022
CVS,26180 Iris Ave,Moreno Valley,CA,92555
CVS,2620 E Chapman Ave,Orange,CA,92869
CVS,29171 Newport Rd,Menifee,CA,92584
CVS,3750 Barranca Pkwy,Irvine,CA,92606
CVS,15520 Goldenwest St,Huntington Beach,CA,92647
CVS,5020 W 190th St,Torrance,CA,90503
CVS,24167 Paseo de Valencia,Laguna Woods,CA,92637
CVS,12031 Brookhurst St,Garden Grove,CA,92840
CVS,28221 Crown Valley Pkwy,Laguna Niguel,CA,92677
CVS,100 Foothill Boulevard,Upland,CA,91786
CVS,5960 Pacific Blvd,Huntington Park,CA,90255
CVS,3943 San Fernando Rd,Glendale,CA,91204
CVS,25511 Muirlands Blvd,Mission Viejo,CA,92691
CVS,3458 S Sepulveda Blvd,Los Angeles,CA,90034
CVS,6215 Riverside Ave,Riverside,CA,92506
CVS,4744 Lankershim Blvd,North Hollywood,CA,91602
CVS,11831 Hawthorne Blvd,Hawthorne,CA,90250
CVS,6201 Sepulveda Blvd,Van Nuys,CA,91411
CVS,4570 Atlantic Ave,Long Beach,CA,90807
CVS,1322 W 6th St,Corona,CA,92882
CVS,26762 Portola Pkwy,Lake Forest,CA,92610
CVS,3202 Wilshire Blvd,Santa Monica,CA,90403
CVS,1843 S La Cienega Blvd,Los Angeles,CA,90035
CVS,511 N Hollywood Way,Burbank,CA,91505
CVS,23357 Mulholland Dr,Woodland Hills,CA,91364
CVS,11623 Rosecrans Ave,Norwalk,CA,90650
CVS,2101 W Imperial Hwy Unit C,La Habra,CA,90631
CVS,21051 Sherman Way,Canoga Park,CA,91303
CVS,2825 Cochran St,Simi Valley,CA,93065
CVS,2532 W Valley Blvd,Alhambra,CA,91803
CVS,14220 Schleisman Rd,Eastvale,CA,92880
CVS,455 N State College Blvd,Fullerton,CA,92831
CVS,1302 S La Brea Ave,Los Angeles,CA,90019
CVS,1479 Foothill Blvd,La Verne,CA,91750
CVS,16922 Bolsa Chica St,Huntington Beach,CA,92649
CVS,312 N Euclid St,Fullerton,CA,92832
CVS,9052 Central Ave,Montclair,CA,91763
CVS,7300 S Alameda St,Walnut Park,CA,90255
CVS,800 Tri City Ctr,Redlands,CA,92374
CVS,1250 E Pacific Coast Hwy,Long Beach,CA,90806
CVS,8840 Corbin Ave,Northridge,CA,91324
CVS,1823 W Orangethorpe Ave,Fullerton,CA,92833
CVS,2315 Huntington Dr,Duarte,CA,91010
CVS,491 E Alessandro Blvd,Riverside,CA,92508
CVS,4501 W Slauson Ave,View Park-Windsor Hills,CA,90043
CVS,7911 Haven Ave,Rancho Cucamonga,CA,91730
CVS,20700 Avalon Blvd Ste 700,Carson,CA,90746
CVS,8491 Santa Monica Blvd,West Hollywood,CA,90069
CVS,1701 S Western Ave,Los Angeles,CA,90006
CVS,5505 Carson St,Lakewood,CA,90713
CVS,1050 W Sunset Blvd,Los Angeles,CA,90012
CVS,17625 Harvard Ave,Irvine,CA,92614
CVS,6635 Fallbrook Ave,West Hills,CA,91307
CVS,1880 S Pacific Coast Hwy,Redondo Beach,CA,90277
CVS,101 W Foothill Blvd,Azusa,CA,91702
CVS,5601 Van Nuys Blvd,Sherman Oaks,CA,91401
CVS,3121 E Colorado Blvd,Pasadena,CA,91107
CVS,7530 Orangethorpe Ave,Buena Park,CA,90621
CVS,1026 S Broadway Ste A,Los Angeles,CA,90015
CVS,9900 Sepulveda Blvd,Mission Hills,CA,91345
CVS,300 S Diamond Bar Blvd,Diamond Bar,CA,91765
CVS,102 N Main St,Santa Ana,CA,92701
CVS,1535 E Katella Ave,Orange,CA,92867
CVS,19121 Beach Blvd,Huntington Beach,CA,92648
CVS,861 N Hacienda Blvd,La Puente,CA,91744
CVS,175 E 17th St,Costa Mesa,CA,92627
CVS,15232 Sherman Way,Van Nuys,CA,91405
CVS,150 W Carson St,Carson,CA,90745
CVS,4909 Paramount Blvd,Lakewood,CA,90712
CVS,1401 S Baldwin Ave,Arcadia,CA,91007
CVS,460 S Anaheim Hills Rd,Anaheim,CA,92807
CVS,15180 Kensington Park Dr,Tustin,CA,92782
CVS,620 S Virgil Ave Ste 100,Los Angeles,CA,90005
CVS,1485 S Garey Ave,Pomona,CA,91766
CVS,8580 Whittier Blvd,Pico Rivera,CA,90660
CVS,901 Silver Spur Rd,Rolling Hills Estates,CA,90274
CVS,4255 Campus Dr Ste A150,Irvine,CA,92612
CVS,5399 W Centinela Ave,Ladera Heights,CA,90045
CVS,23743 Jackson Ave,Murrieta,CA,92562
CVS,4440 Alamo St,Simi Valley,CA,93063
CVS,3981 Irvine Blvd,Irvine,CA,92602
CVS,26851 Trabuco Rd,Mission Viejo,CA,92691
CVS,611 S Brookhurst St,Anaheim,CA,92804
CVS,26932 La Paz Rd,Aliso Viejo,CA,92656
CVS,8999 Balboa Blvd,Northridge,CA,91325
CVS,12100 Ventura Blvd,Studio City,CA,91604
CVS,3290 Chino Hills Pkwy,Chino Hills,CA,91709
CVS,14503 Ramona Blvd,Baldwin Park,CA,91706
CVS,17136 Magnolia St,Fountain Valley,CA,92708
CVS,16049 Baseline Ave,Fontana,CA,92336
CVS,1545 W 17th St,Santa Ana,CA,92706
CVS,15333 Culver Dr,Irvine,CA,92604
CVS,632 Lindero Canyon Rd,Oak Park,CA,91377
CVS,735 S Figueroa St,Los Angeles,CA,90017
CVS,8800 Whittier Blvd,Pico Rivera,CA,90660
CVS,1701 N Gaffey St,San Pedro,CA,90731
CVS,150 E Yorba Linda Blvd,Placentia,CA,92870
CVS,21572 Plano Trabuco Rd,Rancho Santa Margarita,CA,92679
CVS,915 E Arrow Hwy,Azusa,CA,91702
CVS,125 N Central Ave,Glendale,CA,91203
CVS,701 Rio Rancho Rd,Pomona,CA,91766
CVS,1015 N San Fernando Blvd,Burbank,CA,91504
CVS,2831 E Eastland Center Dr,West Covina,CA,91791
CVS,5117 Lakewood Blvd,Lakewood,CA,90712
CVS,5822 Edinger Ave,Huntington Beach,CA,92649
CVS,5585 Rosemead Blvd,Temple City,CA,91780
CVS,390 N Brea Blvd,Brea,CA,92821
CVS,8859 Alondra Blvd,Paramount,CA,90723
CVS,727 S Arroyo Pkwy,Pasadena,CA,91105
CVS,12100 Harbor Blvd,Garden Grove,CA,92840
CVS,19783 Rinaldi St,Porter Ranch,CA,91326
CVS,1387 W Whittier Blvd,La Habra,CA,90631
CVS,727 S Glendora Ave,West Covina,CA,91790
CVS,5200 University Pkwy,San Bernardino,CA,92407
CVS,15286 Summit Ave,Fontana,CA,92336
CVS,12444 Beach Blvd,Stanton,CA,90680
CVS,11800 Santa Monica Blvd,Los Angeles,CA,90025
CVS,13181 Peyton Dr,Chino Hills,CA,91709
CVS,17320 Ventura Blvd,Encino,CA,91316
CVS,12143 Ventura Blvd,Studio City,CA,91604
CVS,101 Redlands Mall,Redlands,CA,92373
CVS,816 E Main St,Alhambra,CA,91801
CVS,18872 Beach Blvd,Huntington Beach,CA,92648
CVS,7101 Atlantic Ave,Bell,CA,90201
CVS,222 N Market St,Inglewood,CA,90301
CVS,23791 Washington Ave,Murrieta,CA,92562
CVS,1601 Kingsdale Ave,Redondo Beach,CA,90278
CVS,5822 S Vermont Ave,Los Angeles,CA,90044
CVS,747 Grand Ave,Diamond Bar,CA,91765
CVS,3627 E Cesar E Chavez Ave,Los Angeles,CA,90063
CVS,1183 Magnolia Ave,Corona,CA,92879
CVS,27749 Clinton Keith Rd,Murrieta,CA,92562
CVS,27818 Clinton Keith Rd,Murrieta,CA,92562
CVS,18441 Ventura Blvd,Tarzana,CA,91356
CVS,700 S Gaffey St,San Pedro,CA,90731
CVS,6265 E 2nd St # 101,Long Beach,CA,90803
CVS,188 Las Tunas Dr,Arcadia,CA,91007
CVS,30736 Benton Rd,French Valley,CA,92596
CVS,16400 Beach Blvd,Westminster,CA,92683
CVS,1800 W Empire Ave,Burbank,CA,91504
CVS,650 N Bellflower Blvd,Long Beach,CA,90814
CVS,9618 W Pico Blvd Ste 501,Los Angeles,CA,90035
CVS,901 S Central Ave,Compton,CA,90220
CVS,1200 N Sepulveda Blvd,Manhattan Beach,CA,90266
CVS,671 E 1st St,Tustin,CA,92780
CVS,2141 S Hacienda Blvd,Hacienda Heights,CA,91745
CVS,311 S Mountain Ave,Upland,CA,91786
CVS,3151 Baldwin Park Blvd,Baldwin Park,CA,91706
CVS,26686 Portola Parkway Portola Parkway And Bake,Lake Forest,CA,92610
CVS,1001 Westwood Blvd,Los Angeles,CA,90024
CVS,12471 Limonite Ave,Eastvale,CA,91752
CVS,2001 Pacific Coast Hwy,Lomita,CA,90717
CVS,11574 Lower Azusa Rd,El Monte,CA,91732
CVS,23805 Malibu Rd,Malibu,CA,90265
CVS,3949 Portola Pkwy,Irvine,CA,92602
CVS,3010 S Sepulveda Blvd,Los Angeles,CA,90034
CVS,2530 Glendale Blvd,Los Angeles,CA,90039
CVS,16461 Ventura Blvd,Encino,CA,91436
CVS,510 S Beach Blvd,Anaheim,CA,92804
CVS,2121 W Baseline Rd,Upland,CA,91784
CVS,6360 W 3rd St,Los Angeles,CA,90036
CVS,12490 Seal Beach Blvd,Seal Beach,CA,90740
CVS,119 Lincoln Blvd,Venice,CA,90291
CVS,15103 Hawthorne Blvd,Lawndale,CA,90260
CVS,5176 Whittier Blvd,Los Angeles,CA,90022
CVS,2130 N Bellflower Blvd,Long Beach,CA,90815
CVS,1564 W Base Line St,San Bernardino,CA,92411
CVS,6405 Day St,Riverside,CA,92507
CVS,12300 Seal Beach Blvd,Seal Beach,CA,90740
CVS,11426 Washington Blvd,Santa Fe Springs,CA,90606
CVS,18020 Chatsworth St,Granada Hills,CA,91344
CVS,3361 Market St,Riverside,CA,92501
CVS,18247 Sherman Way,Reseda,CA,91335
CVS,2456 S Grove Ave,Ontario,CA,91761
CVS,2701 Harbor Blvd,Costa Mesa,CA,92626
CVS,7065 La Palma Ave,Buena Park,CA,90620
CVS,5969 Lankershim Blvd,North Hollywood,CA,91601
CVS,1795 E Lugonia Ave,Redlands,CA,92374
CVS,1621 S Alameda St,Compton,CA,90220
CVS,2200 N Harbor Blvd,Fullerton,CA,92835
CVS,1050 Huntington Dr,Duarte,CA,91010
CVS,40365 Winchester Rd,Temecula,CA,92591
CVS,12051 Imperial Hwy,Norwalk,CA,90650
CVS,9045 Wilshire Blvd,Beverly Hills,CA,90211
CVS,23330 El Toro Rd,Lake Forest,CA,92630
CVS,731 S Weir Canyon Rd,Anaheim,CA,92808
CVS,14330 Culver Dr,Irvine,CA,92604
CVS,27750 Santa Margarita Pkwy,Mission Viejo,CA,92691
CVS,5385 Alton Pkwy,Irvine,CA,92604
CVS,5711 Sepulveda Blvd,Van Nuys,CA,91411
CVS,7400 Reseda Blvd,Reseda,CA,91335
CVS,1204 San Fernando Rd,San Fernando,CA,91340
CVS,14735 Ventura Blvd,Sherman Oaks,CA,91403
CVS,1290 Hamner Ave,Norco,CA,92860
CVS,921 Pacific Coast Hwy,Seal Beach,CA,90740
CVS,15700 S Western Ave,Gardena,CA,90247
CVS,1303 Sepulveda Blvd,West Carson,CA,90501
CVS,11940 Garvey Ave,El Monte,CA,91732
CVS,10340 Sepulveda Blvd,Mission Hills,CA,91345
CVS,1101 Hidden Valley Pkwy,Norco,CA,92860
CVS,2755 Canyon Springs Pkwy,Riverside,CA,92507
CVS,7117 Brockton Ave,Riverside,CA,92506
CVS,702 N Azusa Ave,West Covina,CA,91791
CVS,2270 N Bellflower Blvd,Long Beach,CA,90815
CVS,3333 Arlington Ave,Riverside,CA,92506
CVS,24271 Muirlands Blvd,Lake Forest,CA,92630
CVS,8280 Magnolia Ave,Riverside,CA,92504
CVS,2103 S Atlantic Blvd,Monterey Park,CA,91754
CVS,690 E Foothill Blvd,Upland,CA,91786
CVS,3710 Tweedy Blvd,South Gate,CA,90280
CVS,3670 South Nogales Street Nogales And La Puente,West Covina,CA,91792
CVS,6840 Lincoln Ave,Riverside,CA,92506
CVS,575 S Citrus Ave,Covina,CA,91723
CVS,10576 Foothill Blvd,Rancho Cucamonga,CA,91730
CVS,6000 Atlantic Ave,Long Beach,CA,90805
CVS,13021 Victory Blvd,North Hollywood,CA,91606
CVS,888 W Arrow Hwy,San Dimas,CA,91773
CVS,2900 N Sepulveda Blvd,Manhattan Beach,CA,90266
CVS,950 E 33rd St,Signal Hill,CA,90755
CVS,27100 Eucalyptus Ave,Moreno Valley,CA,92555
CVS,1676 W Katella Ave,Anaheim,CA,92802
CVS,1020 Irvine Ave,Newport Beach,CA,92660
CVS,9725 Laurel Canyon Blvd,Arleta,CA,91331
CVS,8850 Valley View St,Buena Park,CA,90620
CVS,950 W Foothill Blvd,Monrovia,CA,91016
CVS,858 N Sunset Ave,West Puente Valley,CA,91744
CVS,8530 Reseda Blvd,Northridge,CA,91324
CVS,12746 W Jefferson Blvd Ste 3160,Playa Vista,CA,90094
CVS,14920 Raymer St,Van Nuys,CA,91405
CVS,200 W Orangethorpe Ave,Fullerton,CA,92832
CVS,26973 Newport Rd,Menifee,CA,92584
CVS,150 W Willow St,Pomona,CA,91768
CVS,4414 York Blvd,Los Angeles,CA,90041
CVS,11900 Balboa Blvd,Granada Hills,CA,91344
CVS,9952 Las Tunas Boulevard Corner of Baldwin Avenue,Arcadia,CA,91780
CVS,9256 Slauson Ave,Pico Rivera,CA,90660
CVS,1411 Lincoln Blvd,Santa Monica,CA,90401
CVS,451 S Sierra Madre Blvd,San Pasqual,CA,91107
CVS,2700 W 120th St,Hawthorne,CA,90250
CVS,1299 E Ontario Ave,Corona,CA,92881
CVS,220 E Compton Blvd,Compton,CA,90220
CVS,3300 S Bristol St,Santa Ana,CA,92704
CVS,5735 E La Palma Ave,Anaheim,CA,92807
CVS,10889 Wellworth Ave,Los Angeles,CA,90024
CVS,4625 Torrance Blvd,Torrance,CA,90503
CVS,2238 S Euclid Ave Ste A,Ontario,CA,91762
CVS,2011 E La Palma Ave,Anaheim,CA,92806
CVS,1875 N Kraemer Blvd,Placentia,CA,92870
CVS,2505 Santa Monica Blvd,Santa Monica,CA,90404
CVS,2444 W Beverly Blvd,Montebello,CA,90640
CVS,12717 Glenoaks Blvd,Sylmar,CA,91342
CVS,13171 Mindanao Way Mindanao And The 90 Freeway,Marina del Rey,CA,90292
CVS,4707 Venice Blvd,Los Angeles,CA,90019
CVS,1570 Rosecrans Ave,Manhattan Beach,CA,90266
CVS,6000 Sepulveda Blvd,Culver City,CA,90230
CVS,15466 Whittier Blvd,Whittier,CA,90603
CVS,8400 Firestone Blvd,Downey,CA,90241
CVS,10600 Firestone Blvd,Norwalk,CA,90650
CVS,15718 Hawthorne Blvd,Lawndale,CA,90260
CVS,200 Westminster Mall,Westminster,CA,92683
CVS,211 W Base Line Rd,Rialto,CA,92376
CVS,30602 Santa Margarita Pkwy,Rancho Santa Margarita,CA,92688
CVS,6700 Topanga Canyon Blvd,Canoga Park,CA,91303
CVS,10181 Reseda Blvd,Northridge,CA,91324
CVS,711 Pier Ave,Hermosa Beach,CA,90254
CVS,2419 Workman St,Los Angeles,CA,90031
CVS,500 Wilshire Blvd,Santa Monica,CA,90401
CVS,41040 California Oaks Rd,Murrieta,CA,92562
CVS,24500 Alicia Pkwy,Mission Viejo,CA,92691
CVS,367 N Citrus Ave,Azusa,CA,91702
CVS,2037 Verdugo Blvd,La Cañada Flintridge,CA,91020
CVS,23806 Main St,Carson,CA,90745
CVS,19353 Victory Blvd,Tarzana,CA,91335
CVS,3471 W Century Blvd,Inglewood,CA,90303
CVS,11133 Balboa Blvd,Granada Hills,CA,91344
CVS,3911 S Bristol St,Santa Ana,CA,92704
CVS,11851 Artesia Blvd,Artesia,CA,90701
CVS,20801 Ventura Blvd,Woodland Hills,CA,91364
CVS,27702 Crown Valley Pkwy,Ladera Ranch,CA,92694
CVS,2655 Santa Ana St,South Gate,CA,90280
CVS,102 N San Gabriel Blvd,San Gabriel,CA,91775
CVS,6201 Hollywood Blvd Ste 126,Los Angeles,CA,90028
CVS,5985 W Pico Blvd,Los Angeles,CA,90035
CVS,1010 N Pepper Ave,Colton,CA,92324
CVS,10945 Victory Blvd,North Hollywood,CA,91606
CVS,3600 Rosemead Blvd,Rosemead,CA,91770
CVS,650 E El Segundo Blvd,Los Angeles,CA,90059
CVS,270 W Lincoln Ave,Anaheim,CA,92805
CVS,12101 Central Avenue Central And Philadelphia,Chino,CA,91710
CVS,8008 Firestone Blvd,Downey,CA,90241
CVS,15272 Summit Ave,Fontana,CA,92336
CVS,4535 Holt Blvd,Montclair,CA,91763
CVS,11011 Alondra Blvd,Norwalk,CA,90650
CVS,3535 S La Cienega Blvd,Los Angeles,CA,90016
CVS,313 S Garfield Ave,Monterey Park,CA,91754
CVS,11950 De Palma Rd,Temescal Valley,CA,92883
CVS,1122 E Broadway,Glendale,CA,91205
CVS,3030 Harbor Blvd Ste A,Costa Mesa,CA,92626
CVS,11735 Whittier Blvd,Whittier,CA,90601
CVS,2 Sport Chalet Dr,La Cañada Flintridge,CA,91011
CVS,9882 Adams Ave,Huntington Beach,CA,92646
CVS,18080 Imperial Hwy,Yorba Linda,CA,92886
CVS,11428 Kenyon Way,Rancho Cucamonga,CA,91701
CVS,1747 N Cahuenga Blvd,Hollywood,CA,90028
CVS,17642 17th St,Tustin,CA,92780
CVS,12618 Studebaker Rd,Norwalk,CA,90650
CVS,596 Long Beach Blvd,Long Beach,CA,90802
CVS,2462 Foothill Blvd,La Verne,CA,91750
CVS,141 Lakewood Center Mall,Lakewood,CA,90712
CVS,5101 Obama Blvd,Los Angeles,CA,90016
CVS,25829 Narbonne Ave,Lomita,CA,90717
CVS,2907 Cochran St,Simi Valley,CA,93065
CVS,29985 Canyon Hills Rd,Lake Elsinore,CA,92532
CVS,3880 W Rosecrans Ave,Hawthorne,CA,90250
CVS,101 E Alameda Ave,Burbank,CA,91502
CVS,17751 Colima Rd,City of Industry,CA,91748
CVS,1330 E 17th St,Santa Ana,CA,92705
CVS,3520 Tyler St,Riverside,CA,92503
CVS,5944 N Figueroa St,Los Angeles,CA,90042
CVS,201 N Los Angeles St,Los Angeles,CA,90012
CVS,10820 Jefferson Blvd,Culver City,CA,90230
CVS,2330 S Main St,Santa Ana,CA,92707
CVS,10621 Carmenita Rd,Santa Fe Springs,CA,90670
CVS,1030 Colorado Blvd,Eagle Rock,CA,90041
CVS,8956 Foothill Blvd,Rancho Cucamonga,CA,91730
CVS,1550 Puente Ave,Baldwin Park,CA,91706
CVS,2222 E Lincoln Ave,Anaheim,CA,92806
CVS,13303 South St,Cerritos,CA,90703
CVS,3751 Wilshire Blvd,Los Angeles,CA,90010
CVS,20839 Roscoe Blvd,Winnetka,CA,91306
CVS,3020 Sepulveda Blvd,Torrance,CA,90505
CVS,2138 N Tustin St,Orange,CA,92865
CVS,7241 Boulder Ave,Highland,CA,92346
CVS,555 N Broadway # B101,Los Angeles,CA,90012
CVS,2115 Artesia Blvd Ste 100,Redondo Beach,CA,90278
CVS,10208 Balboa Blvd,Granada Hills,CA,91344
CVS,1240 E Yorba Linda Blvd,Placentia,CA,92870
CVS,21590 Valley Blvd,City of Industry,CA,91789
CVS,3575 Atlantic Ave,Long Beach,CA,90807
CVS,1820 W Verdugo Ave,Burbank,CA,91506
CVS,3401 Katella Ave,Los Alamitos,CA,90720
CVS,25080 Hancock Ave,Murrieta,CA,92562
CVS,155 5th St Ste 175,Huntington Beach,CA,92648
CVS,2370 S Azusa Ave,West Covina,CA,91792
CVS,800 S Grand Ave,Los Angeles,CA,90017
CVS,22050 Ventura Blvd,Woodland Hills,CA,91364
CVS,6299 Bristol Pkwy,Culver City,CA,90230
CVS,3440 La Sierra Ave,Riverside,CA,92503
CVS,12221 Carson St,Hawaiian Gardens,CA,90716
CVS,210 W 7th St,Los Angeles,CA,90014
CVS,8000 W Sunset Blvd,Los Angeles,CA,90046
CVS,11941 San Vicente Blvd,Los Angeles,CA,90049
CVS,2521 Eastbluff Dr,Newport Beach,CA,92660
CVS,316 Pacific Coast Highway,Redondo Beach,CA,90277
CVS,2169 W Redondo Beach Blvd,Gardena,CA,90247
CVS,5837 S Central Ave,Los Angeles,CA,90001
CVS,130 N Grand Ave,Glendora,CA,91741
CVS,3741 Crenshaw Blvd,Los Angeles,CA,90016
CVS,5700 Firestone Blvd,South Gate,CA,90280
CVS,1645 E 103rd St,Los Angeles,CA,90002
CVS,13200 Jamboree Rd,Irvine,CA,92602
CVS,1150 Baker St,Costa Mesa,CA,92626
CVS,26891 Aliso Creek Rd,Aliso Viejo,CA,92656
CVS,255 Main St,Venice,CA,90291
CVS,3335 S Figueroa St Ste Q,Los Angeles,CA,90007
CVS,10011 Adams Ave,Huntington Beach,CA,92646
CVS,900 N Lake Ave,Pasadena,CA,91104
CVS,2195 Glendale Galleria,Glendale,CA,91210
CVS,14310 Hawthorne Blvd,Lawndale,CA,90260
CVS,12315 Venice Blvd,Los Angeles,CA,90066
CVS,1540 E Highland Ave,San Bernardino,CA,92404
CVS,3033 Huntington Dr,Pasadena,CA,91107
CVS,12071 Mount Vernon Ave,Grand Terrace,CA,92313
CVS,8607 Santa Monica Blvd,West Hollywood,CA,90069
CVS,1835C Newport Blvd,Costa Mesa,CA,92627
CVS,3433 Sepulveda Blvd,Torrance,CA,90505
CVS,101 S Euclid St,Anaheim,CA,92802
CVS,155 Pacific Coast Hwy,Hermosa Beach,CA,90254
CVS,311 W Pacific Coast Hwy Ste C,Wilmington,CA,90744
CVS,950 N Western Ave,San Pedro,CA,90732
CVS,6775 Quail Hill Pkwy,Irvine,CA,92603
CVS,4345 W Century Blvd,Inglewood,CA,90304
CVS,18287 Collier Ave,Lake Elsinore,CA,92530
CVS,27310 Baseline St,Highland,CA,92346
CVS,2400 River Rd,Corona,CA,92860
CVS,10048 Mills Avenue Telegraph And Carmenita,South Whittier,CA,90604
CVS,3944 Grand Ave,Chino,CA,91710
CVS,3935 Cochran St,Simi Valley,CA,93063
CVS,9840 Sierra Ave,Fontana,CA,92335
CVS,29995 Alicia Pkwy,Laguna Niguel,CA,92677
CVS,1893 W Malvern Ave,Fullerton,CA,92833
CVS,11525 South St,Cerritos,CA,90703
CVS,5555 Philadelphia St,Chino,CA,91710
CVS,4775 W Rosecrans Ave,Hawthorne,CA,90250
CVS,19701 Vanowen St,Winnetka,CA,91306
CVS,2626 Colorado Blvd,Los Angeles,CA,90041
CVS,6835 Katella Ave,Cypress,CA,90630
CVS,7500 Melrose Ave,Los Angeles,CA,90046
CVS,2615 Tuscany St,Corona,CA,92881
CVS,7191 Warner Ave,Huntington Beach,CA,92647
CVS,2120 W Main St,Alhambra,CA,91801
CVS,22361 Antonio Pkwy Ste E,Rancho Santa Margarita,CA,92688
CVS,8490 Beverly Blvd,Los Angeles,CA,90048
CVS,16964 Slover Ave,Fontana,CA,92337
CVS,25601 Jeronimo Rd,Mission Viejo,CA,92691
CVS,4040 E Chapman Ave,Orange,CA,92869
CVS,855 E Birch St,Brea,CA,92821
CVS,8601 S Sepulveda Blvd,Los Angeles,CA,90045
CVS,1931 N Campus Ave,Upland,CA,91784
